STARLINK-37138
1 68308U 26057Q   26090.83335647 -.01412404  59306-3 -35436-2 0  9998
2 68308  97.2767 214.2237 0001354  94.5721 143.9325 15.95755163  2609
